ONEWEB-0387             
1 49313U 21090AL  24106.87487967  .00000085  00000+0  17756-3 0  9992
2 49313  87.9174  72.1568 0002353  82.2770 277.8631 13.20772159125230
ONEWEB-0388             
1 49314U 21090AM  24107.42562597  .00000030  00000+0  42812-4 0  9990
2 49314  87.9100 102.5618 0001860  83.4304 276.7040 13.19725676123276
ONEWEB-0389             
1 50469U 21132A   24107.18459476  .00000094  00000+0  20773-3 0  9995
2 50469  87.9218 163.4707 0002535  93.0215 267.1207 13.17651510115073
ONEWEB-0390             
1 50470U 21132B   24107.41396207  .00000086  00000+0  18736-3 0  9992
2 50470  87.9216 163.4330 0002463 103.4535 256.6871 13.17650628115109
ONEWEB-0391             
1 50471U 21132C   24107.41554400  .00000073  00000+0  15533-3 0  9992
2 50471  87.9226 163.4111 0002437  89.7050 270.4360 13.17650631115108
ONEWEB-0392             
1 50472U 21132D   24107.21779821  .00000066  00000+0  13601-3 0  9993
2 50472  87.9210 163.4599 0002398  94.8665 265.2740 13.17647500115113
ONEWEB-0393             
1 50473U 21132E   24107.57072062  .00000031  00000+0  46698-4 0  9991
2 50473  87.9220 163.3597 0002419  93.5855 266.5553 13.17649720115159
ONEWEB-0394             
1 50474U 21132F   24107.55420557  .00000093  00000+0  20244-3 0  9992
2 50474  87.9132 133.0445 0002076  89.9573 270.1797 13.18686491118536
ONEWEB-0395             
1 50475U 21132G   24107.43582422  .00000008  00000+0 -12763-4 0  9995
2 50475  87.9019 178.5685 0002312  99.4566 260.6824 13.11413536113218
ONEWEB-0396             
1 50476U 21132H   24107.54788609  .00000085  00000+0  18374-3 0  9990
2 50476  87.9137 133.0408 0002067  87.7229 272.4140 13.18686414118572
ONEWEB-0397             
1 50477U 21132J   24106.80334511  .00000102  00000+0  22533-3 0  9990
2 50477  87.9137 133.1901 0002096  87.7419 272.3953 13.18686170117181
ONEWEB-0398             
1 50478U 21132K   24107.17445947  .00000339  00000+0  92068-3 0  9990
2 50478  87.9019 178.6022 0002443 106.1105 254.0292 13.11416087113082
ONEWEB-0399             
1 50479U 21132L   24107.46503991 -.00000451  00000+0 -13084-2 0  9994
2 50479  87.9020 178.5601 0001831  90.8640 269.2697 13.11418359113115
ONEWEB-0400             
1 50480U 21132M   24106.55516530  .00000050  00000+0  94500-4 0  9995
2 50480  87.9135 133.2452 0002188  98.8332 261.3048 13.18685862118422
ONEWEB-0401             
1 50481U 21132N   24106.82546962  .00000007  00000+0 -14445-4 0  9991
2 50481  87.9131 133.1894 0001716  89.2738 270.8591 13.18686138117185
ONEWEB-0402             
1 50482U 21132P   24107.09418355 -.00000010  00000+0 -57380-4 0  9996
2 50482  87.9132 133.1330 0001427  97.1208 263.0086 13.18686203118526
ONEWEB-0403             
1 50483U 21132Q   24106.81439245  .00000023  00000+0  25967-4 0  9995
2 50483  87.9134 133.1946 0001950  88.5623 271.5732 13.18688186117161
ONEWEB-0404             
1 50484U 21132R   24107.21829912 -.00000364  00000+0 -10631-2 0  9995
2 50484  87.9027 178.5762 0002356  91.4698 268.6699 13.11418659113162
ONEWEB-0405             
1 50485U 21132S   24106.83020883  .00000200  00000+0  47507-3 0  9993
2 50485  87.9133 133.1813 0001620  86.0414 274.0903 13.18689186117563
ONEWEB-0406             
1 50486U 21132T   24106.81915612 -.00000012  00000+0 -63652-4 0  9998
2 50486  87.9135 133.1936 0002417  89.7876 270.3533 13.18685517117190
ONEWEB-0407             
1 50487U 21132U   24107.49571508  .00000087  00000+0  18782-3 0  9999
2 50487  87.9129 133.0639 0001908  88.6899 271.4452 13.18686656118514
ONEWEB-0409             
1 50488U 21132V   24107.21666771 -.00000371  00000+0 -10814-2 0  9992
2 50488  87.9015 178.5784 0002671  94.7734 265.3699 13.11414067113066
ONEWEB-0412             
1 50489U 21132W   24107.56051619  .00000084  00000+0  18043-3 0  9992
2 50489  87.9135 133.0472 0001604  79.7580 280.3733 13.18687109118604
ONEWEB-0413             
1 50490U 21132X   24107.48939726  .00000085  00000+0  18208-3 0  9993
2 50490  87.9135 133.0748 0001573  90.8987 269.2325 13.18685483118541
ONEWEB-0414             
1 50491U 21132Y   24107.55103013  .00000081  00000+0  17222-3 0  9995
2 50491  87.9133 133.0434 0001906  83.1327 277.0022 13.18686402118582
ONEWEB-0417             
1 50492U 21132Z   24107.55895176  .00000103  00000+0  22910-3 0  9999
2 50492  87.9140 133.0404 0002337  90.3845 269.7555 13.18686210118566
ONEWEB-0418             
1 50493U 21132AA  24106.80953061  .00000079  00000+0  16651-3 0  9992
2 50493  87.9136 133.1949 0002529  87.6728 272.4693 13.18684859117233
ONEWEB-0419             
1 50494U 21132AB  24107.50994428  .00000080  00000+0  16947-3 0  9993
2 50494  87.9130 133.0752 0002405  95.1094 265.0313 13.18686003118536
ONEWEB-0420             
1 50495U 21132AC  24107.55260119  .00000101  00000+0  22295-3 0  9999
2 50495  87.9132 133.0750 0001685  98.9940 261.1383 13.18688554118545
ONEWEB-0421             
1 50496U 21132AD  24106.55990931  .00000057  00000+0  11304-3 0  9990
2 50496  87.9142 133.2338 0001836  79.1617 280.9722 13.18686931118454
ONEWEB-0424             
1 50497U 21132AE  24107.50520601 -.00002341  00000+0 -59706-2 0  9997
2 50497  87.9134 133.0547 0002411 101.9131 258.2271 13.18697410118586
ONEWEB-0426             
1 50498U 21132AF  24106.55674474  .00000054  00000+0  10542-3 0  9993
2 50498  87.9132 133.2629 0002396  77.7246 282.4154 13.18686129118413
ONEWEB-0427             
1 50499U 21132AG  24107.50361170  .00000085  00000+0  18177-3 0  9992
2 50499  87.9131 133.0513 0002263  88.8944 271.2447 13.18684065118579
ONEWEB-0429             
1 50500U 21132AH  24107.56685456  .00000066  00000+0  13407-3 0  9997
2 50500  87.9137 133.0408 0001960  93.4139 266.7217 13.18684986118545
ONEWEB-0430             
1 50501U 21132AJ  24106.79701112 -.00000029  00000+0 -10740-3 0  9998
2 50501  87.9135 133.2007 0002179 107.1539 252.9832 13.18686902117191
ONEWEB-0432             
1 50502U 21132AK  24106.82863140  .00000042  00000+0  73044-4 0  9993
2 50502  87.9133 133.1880 0001980  97.6825 262.4533 13.18686632117158
ONEWEB-0440             
1 50503U 21132AL  24106.81598966  .00000143  00000+0  32942-3 0  9997
2 50503  87.9136 133.1779 0001569  80.5917 279.5393 13.18685817117141
ONEWEB-0450             
1 50504U 21132AM  24106.80979582  .00000060  00000+0  11844-3 0  9990
2 50504  87.9135 133.2071 0001774 102.8224 257.3107 13.18687162117179
ONEWEB-0410             
1 51622U 22012A   24107.43136381 -.00000363  00000+0 -96789-3 0  9991
2 51622  87.9213 163.4066 0003196  72.0948 288.0532 13.17650535110728
ONEWEB-0411             
1 51623U 22012B   24107.18573466 -.00000497  00000+0 -14600-2 0  9992
2 51623  87.8997 193.6474 0002342 112.9499 247.1876 13.10370497106846
ONEWEB-0415             
1 51624U 22012C   24107.18241500 -.00000499  00000+0 -14669-2 0  9991
2 51624  87.8990 193.6731 0002361 109.8081 250.3301 13.10368011106847
ONEWEB-0416             
1 51625U 22012D   24107.19404846 -.00000499  00000+0 -14670-2 0  9999
2 51625  87.8999 193.6617 0001965 102.4491 257.6856 13.10371815106899
ONEWEB-0422             
1 51626U 22012E   24107.21305269  .00000009  00000+0 -98060-5 0  9996
2 51626  87.9215 163.4484 0001423 113.8411 246.2870 13.17648536110794
ONEWEB-0423             
1 51627U 22012F   24106.59924285  .00000002  00000+0 -27620-4 0  9998
2 51627  87.9218 163.5695 0001970  95.5778 264.5578 13.17647817109328
ONEWEB-0425             
1 51628U 22012G   24106.66950160 -.00000126  00000+0 -39622-3 0  9990
2 51628  87.9000 193.7513 0001888  86.3387 273.7956 13.10372445105530
ONEWEB-0428             
1 51629U 22012H   24107.18409807 -.00000537  00000+0 -15736-2 0  9991
2 51629  87.8994 193.6640 0001864 114.7957 245.3364 13.10368143106848
ONEWEB-0431             
1 51630U 22012J   24107.23043182  .00000697  00000+0  19611-2 0  9990
2 51630  87.8991 193.6563 0002314 121.7193 238.4160 13.10377115106916
ONEWEB-0434             
1 51631U 22012K   24107.51275334 -.00000092  00000+0 -30008-3 0  9993
2 51631  87.9001 193.6110 0001770 105.7008 254.4315 13.10377916106931
ONEWEB-0435             
1 51632U 22012L   24107.21561852  .00000433  00000+0  12046-2 0  9992
2 51632  87.9003 193.6603 0001673 113.8158 246.3145 13.10376941106870
ONEWEB-0436             
1 51633U 22012M   24107.19881630  .00000028  00000+0  39159-4 0  9995
2 51633  87.9212 163.4583 0001838 102.0761 258.0577 13.17650325110678
ONEWEB-0438             
1 51634U 22012N   24107.19900801 -.00000494  00000+0 -14528-2 0  9998
2 51634  87.9000 193.6641 0001970  96.8872 263.2480 13.10373442106912
ONEWEB-0439             
1 51635U 22012P   24107.20232778 -.00000246  00000+0 -74084-3 0  9991
2 51635  87.9001 193.6475 0001976 105.5906 254.5439 13.10373609106889
ONEWEB-0442             
1 51636U 22012Q   24106.58262909  .00000026  00000+0  34760-4 0  9993
2 51636  87.9216 163.6126 0002779  88.4114 271.7336 13.17647412110582
ONEWEB-0443             
1 51637U 22012R   24107.20987954  .00000073  00000+0  15407-3 0  9996
2 51637  87.9218 163.4956 0001522  96.3075 263.8230 13.17650740110711
ONEWEB-0444             
1 51638U 22012S   24107.19237452 -.00000591  00000+0 -17282-2 0  9995
2 51638  87.8993 193.6745 0001766 104.8806 255.2517 13.10371927106908
ONEWEB-0445             
1 51639U 22012T   24107.21394689  .00000141  00000+0  36749-3 0  9994
2 51639  87.8992 193.6454 0002306 101.0376 259.1011 13.10375124106902
ONEWEB-0446             
1 51640U 22012U   24107.19072193 -.00000569  00000+0 -16653-2 0  9993
2 51640  87.8998 193.6684 0002339 104.9666 255.1721 13.10372062106907
ONEWEB-0448             
1 51641U 22012V   24107.19566353 -.00000511  00000+0 -14998-2 0  9997
2 51641  87.9000 193.6682 0001796 102.7900 257.3428 13.10372636106864
ONEWEB-0449             
1 51642U 22012W   24107.50608942 -.00000359  00000+0 -10633-2 0  9996
2 51642  87.8993 193.6058 0002027  94.4296 265.7063 13.10374343106927
